[{"OBJECT_NAME":"STARLINK-32610","OBJECT_ID":"2024-210N","EPOCH":"2026-03-09T08:07:26.325696","MEAN_MOTION":15.27594292,"ECCENTRICITY":0.00011868,"INCLINATION":42.995,"RA_OF_ASC_NODE":182.0282,"ARG_OF_PERICENTER":291.3499,"MEAN_ANOMALY":68.7225,"EPHEMERIS_TYPE":0,"CLASSIFICATION_TYPE":"U","NORAD_CAT_ID":61971,"ELEMENT_SET_NO":999,"REV_AT_EPOCH":7486,"BSTAR":0.0010545656,"MEAN_MOTION_DOT":0.00028884,"MEAN_MOTION_DDOT":0},{"OBJECT_NAME":"SL-12 DEB","OBJECT_ID":"1989-039AE","EPOCH":"2026-03-08T15:57:51.444000","MEAN_MOTION":5.32331573,"ECCENTRICITY":0.50761065,"INCLINATION":64.8601,"RA_OF_ASC_NODE":269.3843,"ARG_OF_PERICENTER":48.1081,"MEAN_ANOMALY":345.354,"EPHEMERIS_TYPE":0,"CLASSIFICATION_TYPE":"U","NORAD_CAT_ID":29323,"ELEMENT_SET_NO":999,"REV_AT_EPOCH":9762,"BSTAR":0.0077836612,"MEAN_MOTION_DOT":7.944e-5,"MEAN_MOTION_DDOT":0}]
